{"type":"FeatureCollection", "features": [
{"type":"Feature","geometry":{"type":"Polygon","coordinates":[[[139.5478,35.9342],[139.5495,35.8872],[139.5765,35.8715],[139.5851,35.8605],[139.6074,35.8348],[139.6166,35.834],[139.6187,35.8291],[139.6633,35.829],[139.6771,35.8327],[139.6981,35.8574],[139.7434,35.8859],[139.7523,35.8803],[139.7519,35.9405],[139.7206,35.9584],[139.7079,35.9953],[139.692,35.999],[139.6579,35.9639],[139.6489,35.9622],[139.6257,35.9524],[139.5973,35.9366],[139.5478,35.9342]]]},"properties":{"area":21743,"forest":249,"ratio":1,"m":"さいたま市"}},
{"type":"Feature","geometry":{"type":"Polygon","coordinates":[[[139.5478,35.9342],[139.5366,35.9481],[139.4677,35.9601],[139.4215,35.9558],[139.4119,35.924],[139.3795,35.9199],[139.4016,35.8957],[139.4658,35.8671],[139.4761,35.8399],[139.4779,35.8376],[139.4871,35.842],[139.511,35.8798],[139.5471,35.8811],[139.5495,35.8872],[139.5478,35.9342]]]},"properties":{"area":10913,"forest":272,"ratio":2,"m":"川越市"}},
{"type":"Feature","geometry":{"type":"Polygon","coordinates":[[[139.4442,36.1968],[139.3582,36.2533],[139.3279,36.2399],[139.3322,36.1853],[139.3012,36.1104],[139.3209,36.0906],[139.3872,36.1018],[139.4216,36.0696],[139.4466,36.0836],[139.4318,36.1107],[139.4442,36.1968]]]},"properties":{"area":15982,"forest":422,"ratio":3,"m":"熊谷市"}},
{"type":"Feature","geometry":{"type":"Polygon","coordinates":[[[139.6771,35.8327],[139.6995,35.8153],[139.6977,35.7984],[139.755,35.7869],[139.7676,35.8177],[139.7699,35.8663],[139.7523,35.8803],[139.7434,35.8859],[139.6981,35.8574],[139.6771,35.8327]]]},"properties":{"area":6195,"forest":39,"ratio":1,"m":"川口市"}},
{"type":"Feature","geometry":{"type":"Polygon","coordinates":[[[139.4318,36.1107],[139.5104,36.1247],[139.5309,36.1177],[139.5244,36.1382],[139.488,36.1729],[139.4955,36.1926],[139.4442,36.1968],[139.4318,36.1107]]]},"properties":{"area":6749,"forest":6,"ratio":0,"m":"行田市"}},
{"type":"Feature","geometry":{"type":"Polygon","coordinates":[[[138.9765,36.1172],[138.9311,36.0881],[138.9693,36.0433],[139.0093,36.0279],[139.0505,35.992],[139.0084,35.9797],[138.9183,35.9681],[138.8788,35.9751],[138.8411,36.0006],[138.8284,36.0373],[138.7544,36.0345],[138.7168,35.9929],[138.7142,35.9655],[138.7393,35.9391],[138.7289,35.9097],[138.7891,35.8932],[138.8136,35.8624],[138.8454,35.8674],[138.892,35.8398],[138.9439,35.8548],[138.9544,35.8742],[139.0236,35.8974],[139.1003,35.8672],[139.1208,35.8954],[139.1028,35.9272],[139.0871,35.9755],[139.1064,36.0089],[139.1746,35.989],[139.1762,35.9977],[139.1527,36.0269],[139.1153,36.0557],[139.0577,36.0599],[139.0078,36.0975],[138.9765,36.1172]]]},"properties":{"area":57783,"forest":50269,"ratio":87,"m":"秩父市"}},
{"type":"Feature","geometry":{"type":"Polygon","coordinates":[[[139.4761,35.8399],[139.4195,35.8178],[139.3861,35.8056],[139.3815,35.7743],[139.445,35.7667],[139.5067,35.7828],[139.5417,35.8073],[139.5345,35.8192],[139.5032,35.8143],[139.4779,35.8376],[139.4761,35.8399]]]},"properties":{"area":7211,"forest":574,"ratio":8,"m":"所沢市"}},
{"type":"Feature","geometry":{"type":"Polygon","coordinates":[[[139.1003,35.8672],[139.1354,35.8654],[139.1924,35.8403],[139.2818,35.8395],[139.3161,35.8188],[139.3455,35.8277],[139.3609,35.8594],[139.3747,35.8684],[139.3276,35.8825],[139.2961,35.8685],[139.2772,35.9006],[139.2633,35.9242],[139.2129,35.9564],[139.1786,35.9697],[139.1681,35.9496],[139.1028,35.9272],[139.1208,35.8954],[139.1003,35.8672]]]},"properties":{"area":19305,"forest":14560,"ratio":75,"m":"飯能市"}},
{"type":"Feature","geometry":{"type":"Polygon","coordinates":[[[139.5309,36.1177],[139.5596,36.0718],[139.6281,36.0798],[139.703,36.1451],[139.6866,36.2033],[139.6099,36.1968],[139.6071,36.1593],[139.5632,36.1368],[139.5244,36.1382],[139.5309,36.1177]]]},"properties":{"area":13330,"forest":12,"ratio":0,"m":"加須市"}},
{"type":"Feature","geometry":{"type":"Polygon","coordinates":[[[139.2437,36.2445],[139.1695,36.2748],[139.1359,36.2213],[139.0754,36.1769],[139.0568,36.1262],[139.0825,36.1216],[139.1367,36.1457],[139.163,36.2052],[139.1941,36.2082],[139.2437,36.2445]]]},"properties":{"area":8969,"forest":2409,"ratio":27,"m":"本庄市"}},
{"type":"Feature","geometry":{"type":"Polygon","coordinates":[[[139.3872,36.1018],[139.3857,36.0413],[139.3311,36.0413],[139.3427,36.009],[139.3794,35.9816],[139.4302,35.998],[139.4571,36.0119],[139.418,36.0356],[139.4216,36.0696],[139.3872,36.1018]]]},"properties":{"area":6535,"forest":398,"ratio":6,"m":"東松山市"}},
{"type":"Feature","geometry":{"type":"Polygon","coordinates":[[[139.7519,35.9405],[139.8024,35.9414],[139.8333,35.969],[139.8143,35.9971],[139.8069,36.0432],[139.7438,36.0005],[139.7138,36.0048],[139.7079,35.9953],[139.7206,35.9584],[139.7519,35.9405]]]},"properties":{"area":6600,"forest":32,"ratio":0,"m":"春日部市"}},
{"type":"Feature","geometry":{"type":"Polygon","coordinates":[[[139.4016,35.8957],[139.3747,35.8684],[139.3609,35.8594],[139.4074,35.8403],[139.4195,35.8178],[139.4761,35.8399],[139.4658,35.8671],[139.4016,35.8957]]]},"properties":{"area":4899,"forest":330,"ratio":7,"m":"狭山市"}},
{"type":"Feature","geometry":{"type":"Polygon","coordinates":[[[139.5244,36.1382],[139.5632,36.1368],[139.6071,36.1593],[139.6099,36.1968],[139.5878,36.2104],[139.5352,36.1929],[139.4955,36.1926],[139.488,36.1729],[139.5244,36.1382]]]},"properties":{"area":5864,"forest":11,"ratio":0,"m":"羽生市"}},
{"type":"Feature","geometry":{"type":"Polygon","coordinates":[[[139.4466,36.0836],[139.4943,36.0351],[139.533,36.0516],[139.5643,36.0355],[139.5704,36.0405],[139.5596,36.0718],[139.5309,36.1177],[139.5104,36.1247],[139.4318,36.1107],[139.4466,36.0836]]]},"properties":{"area":6744,"forest":12,"ratio":0,"m":"鴻巣市"}},
{"type":"Feature","geometry":{"type":"Polygon","coordinates":[[[139.3279,36.2399],[139.2437,36.2445],[139.1941,36.2082],[139.1902,36.1767],[139.2205,36.159],[139.2168,36.1191],[139.2882,36.1067],[139.3012,36.1104],[139.3322,36.1853],[139.3279,36.2399]]]},"properties":{"area":13837,"forest":315,"ratio":2,"m":"深谷市"}},
{"type":"Feature","geometry":{"type":"Polygon","coordinates":[[[139.5973,35.9366],[139.6257,35.9524],[139.6489,35.9622],[139.6422,35.9697],[139.5908,36.0087],[139.5348,35.9607],[139.5366,35.9481],[139.5478,35.9342],[139.5973,35.9366]]]},"properties":{"area":4551,"forest":112,"ratio":2,"m":"上尾市"}},
{"type":"Feature","geometry":{"type":"Polygon","coordinates":[[[139.7676,35.8177],[139.8211,35.8151],[139.8409,35.8559],[139.8398,35.8594],[139.8399,35.87],[139.8072,35.8559],[139.7699,35.8663],[139.7676,35.8177]]]},"properties":{"area":2746,"forest":0,"ratio":0,"m":"草加市"}},
{"type":"Feature","geometry":{"type":"Polygon","coordinates":[[[139.7523,35.8803],[139.7699,35.8663],[139.8072,35.8559],[139.8399,35.87],[139.8373,35.9061],[139.8024,35.9414],[139.7519,35.9405],[139.7523,35.8803]]]},"properties":{"area":6024,"forest":9,"ratio":0,"m":"越谷市"}},
{"type":"Feature","geometry":{"type":"Polygon","coordinates":[[[139.6633,35.829],[139.6995,35.8153],[139.6771,35.8327],[139.6633,35.829]]]},"properties":{"area":511,"forest":0,"ratio":0,"m":"蕨市"}},
{"type":"Feature","geometry":{"type":"Polygon","coordinates":[[[139.6187,35.8291],[139.6234,35.8098],[139.6463,35.7979],[139.6977,35.7984],[139.6995,35.8153],[139.6633,35.829],[139.6187,35.8291]]]},"properties":{"area":1819,"forest":0,"ratio":0,"m":"戸田市"}},
{"type":"Feature","geometry":{"type":"Polygon","coordinates":[[[139.4195,35.8178],[139.4074,35.8403],[139.3609,35.8594],[139.3455,35.8277],[139.3161,35.8188],[139.3222,35.7996],[139.3815,35.7743],[139.3861,35.8056],[139.4195,35.8178]]]},"properties":{"area":4469,"forest":668,"ratio":15,"m":"入間市"}},
{"type":"Feature","geometry":{"type":"Polygon","coordinates":[[[139.6074,35.8348],[139.5779,35.8229],[139.5941,35.7787],[139.5972,35.7784],[139.6234,35.8098],[139.6187,35.8291],[139.6166,35.834],[139.6074,35.8348]]]},"properties":{"area":1834,"forest":14,"ratio":1,"m":"朝霞市"}},
{"type":"Feature","geometry":{"type":"Polygon","coordinates":[[[139.5851,35.8605],[139.5553,35.8282],[139.5553,35.8256],[139.5779,35.8229],[139.6074,35.8348],[139.5851,35.8605]]]},"properties":{"area":905,"forest":0,"ratio":0,"m":"志木市"}},
{"type":"Feature","geometry":{"type":"Polygon","coordinates":[[[139.6234,35.8098],[139.5972,35.7784],[139.6463,35.7979],[139.6234,35.8098]]]},"properties":{"area":1104,"forest":3,"ratio":0,"m":"和光市"}},
{"type":"Feature","geometry":{"type":"Polygon","coordinates":[[[139.5417,35.8073],[139.5472,35.7534],[139.5941,35.7787],[139.5779,35.8229],[139.5553,35.8256],[139.5345,35.8192],[139.5417,35.8073]]]},"properties":{"area":2278,"forest":87,"ratio":4,"m":"新座市"}},
{"type":"Feature","geometry":{"type":"Polygon","coordinates":[[[139.5643,36.0355],[139.5528,36.0146],[139.5078,35.996],[139.5348,35.9607],[139.5908,36.0087],[139.5956,36.0272],[139.5882,36.0289],[139.5704,36.0405],[139.5643,36.0355]]]},"properties":{"area":2535,"forest":64,"ratio":3,"m":"桶川市"}},
{"type":"Feature","geometry":{"type":"Polygon","coordinates":[[[139.5596,36.0718],[139.5704,36.0405],[139.5882,36.0289],[139.6042,36.0368],[139.6837,36.0421],[139.6993,36.0556],[139.7029,36.0624],[139.6912,36.0843],[139.7271,36.1075],[139.703,36.1451],[139.6281,36.0798],[139.5596,36.0718]]]},"properties":{"area":8241,"forest":12,"ratio":0,"m":"久喜市"}},
{"type":"Feature","geometry":{"type":"Polygon","coordinates":[[[139.4943,36.0351],[139.4996,36.0136],[139.5078,35.996],[139.5528,36.0146],[139.5643,36.0355],[139.533,36.0516],[139.4943,36.0351]]]},"properties":{"area":1982,"forest":49,"ratio":2,"m":"北本市"}},
{"type":"Feature","geometry":{"type":"Polygon","coordinates":[[[139.8211,35.8151],[139.8588,35.7944],[139.8409,35.8559],[139.8211,35.8151]]]},"properties":{"area":1802,"forest":0,"ratio":0,"m":"八潮市"}},
{"type":"Feature","geometry":{"type":"Polygon","coordinates":[[[139.5495,35.8872],[139.5471,35.8811],[139.5278,35.8494],[139.5553,35.8282],[139.5851,35.8605],[139.5765,35.8715],[139.5495,35.8872]]]},"properties":{"area":1977,"forest":7,"ratio":0,"m":"富士見市"}},
{"type":"Feature","geometry":{"type":"Polygon","coordinates":[[[139.8409,35.8559],[139.8588,35.7944],[139.8885,35.7965],[139.8992,35.8669],[139.8398,35.8594],[139.8409,35.8559]]]},"properties":{"area":3013,"forest":0,"ratio":0,"m":"三郷市"}},
{"type":"Feature","geometry":{"type":"Polygon","coordinates":[[[139.6579,35.9639],[139.692,35.999],[139.6486,36.0313],[139.6042,36.0368],[139.5882,36.0289],[139.5956,36.0272],[139.6351,36.0062],[139.6422,35.9697],[139.6489,35.9622],[139.6579,35.9639]]]},"properties":{"area":2728,"forest":105,"ratio":4,"m":"蓮田市"}},
{"type":"Feature","geometry":{"type":"Polygon","coordinates":[[[139.4677,35.9601],[139.4302,35.998],[139.3794,35.9816],[139.3489,35.9688],[139.3275,35.9231],[139.3524,35.9282],[139.4215,35.9558],[139.4677,35.9601]]]},"properties":{"area":4102,"forest":66,"ratio":2,"m":"坂戸市"}},
{"type":"Feature","geometry":{"type":"Polygon","coordinates":[[[139.7029,36.0624],[139.7398,36.0405],[139.7895,36.0618],[139.7283,36.0901],[139.7271,36.1075],[139.6912,36.0843],[139.7029,36.0624]]]},"properties":{"area":3393,"forest":1,"ratio":0,"m":"幸手市"}},
{"type":"Feature","geometry":{"type":"Polygon","coordinates":[[[139.4215,35.9558],[139.3524,35.9282],[139.3795,35.9199],[139.4119,35.924],[139.4215,35.9558]]]},"properties":{"area":1765,"forest":67,"ratio":4,"m":"鶴ヶ島市"}},
{"type":"Feature","geometry":{"type":"Polygon","coordinates":[[[139.3795,35.9199],[139.3524,35.9282],[139.3275,35.9231],[139.2772,35.9006],[139.2961,35.8685],[139.3276,35.8825],[139.3747,35.8684],[139.4016,35.8957],[139.3795,35.9199]]]},"properties":{"area":4748,"forest":1119,"ratio":24,"m":"日高市"}},
{"type":"Feature","geometry":{"type":"Polygon","coordinates":[[[139.8398,35.8594],[139.8992,35.8669],[139.8493,35.9383],[139.8373,35.9061],[139.8399,35.87],[139.8398,35.8594]]]},"properties":{"area":3166,"forest":2,"ratio":0,"m":"吉川市"}},
{"type":"Feature","geometry":{"type":"Polygon","coordinates":[[[139.4871,35.842],[139.5278,35.8494],[139.5471,35.8811],[139.511,35.8798],[139.4871,35.842]]]},"properties":{"area":1464,"forest":29,"ratio":2,"m":"ふじみ野市"}},
{"type":"Feature","geometry":{"type":"Polygon","coordinates":[[[139.7079,35.9953],[139.7138,36.0048],[139.6837,36.0421],[139.6042,36.0368],[139.6486,36.0313],[139.692,35.999],[139.7079,35.9953]]]},"properties":{"area":2492,"forest":24,"ratio":1,"m":"白岡市"}},
{"type":"Feature","geometry":{"type":"Polygon","coordinates":[[[139.6422,35.9697],[139.6351,36.0062],[139.5956,36.0272],[139.5908,36.0087],[139.6422,35.9697]]]},"properties":{"area":1479,"forest":53,"ratio":4,"m":"伊奈町"}},
{"type":"Feature","geometry":{"type":"Polygon","coordinates":[[[139.4779,35.8376],[139.5032,35.8143],[139.5345,35.8192],[139.5553,35.8256],[139.5553,35.8282],[139.5278,35.8494],[139.4871,35.842],[139.4779,35.8376]]]},"properties":{"area":1533,"forest":112,"ratio":7,"m":"三芳町"}},
{"type":"Feature","geometry":{"type":"Polygon","coordinates":[[[139.2772,35.9006],[139.3275,35.9231],[139.3489,35.9688],[139.3214,35.9656],[139.2633,35.9242],[139.2772,35.9006]]]},"properties":{"area":3407,"forest":1437,"ratio":42,"m":"毛呂山町"}},
{"type":"Feature","geometry":{"type":"Polygon","coordinates":[[[139.2633,35.9242],[139.3214,35.9656],[139.2882,35.9913],[139.2306,35.9745],[139.2129,35.9564],[139.2633,35.9242]]]},"properties":{"area":4039,"forest":2714,"ratio":67,"m":"越生町"}},
{"type":"Feature","geometry":{"type":"Polygon","coordinates":[[[139.3209,36.0906],[139.3311,36.0413],[139.3857,36.0413],[139.3872,36.1018],[139.3209,36.0906]]]},"properties":{"area":2968,"forest":798,"ratio":27,"m":"滑川町"}},
{"type":"Feature","geometry":{"type":"Polygon","coordinates":[[[139.3012,36.1104],[139.2882,36.1067],[139.2882,36.099],[139.2962,36.0325],[139.3166,36.0091],[139.3427,36.009],[139.3311,36.0413],[139.3209,36.0906],[139.3012,36.1104]]]},"properties":{"area":2992,"forest":899,"ratio":30,"m":"嵐山町"}},
{"type":"Feature","geometry":{"type":"Polygon","coordinates":[[[139.2882,36.099],[139.252,36.0835],[139.2099,36.0875],[139.1977,36.0687],[139.2299,36.0532],[139.1857,36.0249],[139.1902,36.0061],[139.2583,36.0336],[139.2962,36.0325],[139.2882,36.099]]]},"properties":{"area":6036,"forest":3235,"ratio":54,"m":"小川町"}},
{"type":"Feature","geometry":{"type":"Polygon","coordinates":[[[139.5366,35.9481],[139.5348,35.9607],[139.5078,35.996],[139.4996,36.0136],[139.4571,36.0119],[139.4302,35.998],[139.4677,35.9601],[139.5366,35.9481]]]},"properties":{"area":4163,"forest":0,"ratio":0,"m":"川島町"}},
{"type":"Feature","geometry":{"type":"Polygon","coordinates":[[[139.4216,36.0696],[139.418,36.0356],[139.4571,36.0119],[139.4996,36.0136],[139.4943,36.0351],[139.4466,36.0836],[139.4216,36.0696]]]},"properties":{"area":3864,"forest":205,"ratio":5,"m":"吉見町"}},
{"type":"Feature","geometry":{"type":"Polygon","coordinates":[[[139.3427,36.009],[139.3166,36.0091],[139.2882,35.9913],[139.3214,35.9656],[139.3489,35.9688],[139.3794,35.9816],[139.3427,36.009]]]},"properties":{"area":2573,"forest":826,"ratio":32,"m":"鳩山町"}},
{"type":"Feature","geometry":{"type":"Polygon","coordinates":[[[139.1746,35.989],[139.1786,35.9697],[139.2129,35.9564],[139.2306,35.9745],[139.2882,35.9913],[139.3166,36.0091],[139.2962,36.0325],[139.2583,36.0336],[139.1902,36.0061],[139.1762,35.9977],[139.1746,35.989]]]},"properties":{"area":5590,"forest":3812,"ratio":68,"m":"ときがわ町"}},
{"type":"Feature","geometry":{"type":"Polygon","coordinates":[[[139.1028,35.9272],[139.1681,35.9496],[139.1786,35.9697],[139.1746,35.989],[139.1064,36.0089],[139.0871,35.9755],[139.1028,35.9272]]]},"properties":{"area":4936,"forest":4032,"ratio":82,"m":"横瀬町"}},
{"type":"Feature","geometry":{"type":"Polygon","coordinates":[[[139.1527,36.0269],[139.1515,36.0884],[139.1393,36.0908],[139.0931,36.091],[139.0825,36.1216],[139.0568,36.1262],[139.0078,36.0975],[139.0577,36.0599],[139.1153,36.0557],[139.1527,36.0269]]]},"properties":{"area":6374,"forest":4565,"ratio":72,"m":"皆野町"}},
{"type":"Feature","geometry":{"type":"Polygon","coordinates":[[[139.0825,36.1216],[139.0931,36.091],[139.1393,36.0908],[139.1606,36.135],[139.1367,36.1457],[139.0825,36.1216]]]},"properties":{"area":3043,"forest":2143,"ratio":70,"m":"長瀞町"}},
{"type":"Feature","geometry":{"type":"Polygon","coordinates":[[[138.9311,36.0881],[138.8979,36.0907],[138.846,36.0666],[138.8284,36.0373],[138.8411,36.0006],[138.8788,35.9751],[138.9183,35.9681],[139.0084,35.9797],[139.0505,35.992],[139.0093,36.0279],[138.9693,36.0433],[138.9311,36.0881]]]},"properties":{"area":17126,"forest":14155,"ratio":83,"m":"小鹿野町"}},
{"type":"Feature","geometry":{"type":"Polygon","coordinates":[[[139.1762,35.9977],[139.1902,36.0061],[139.1857,36.0249],[139.2299,36.0532],[139.1977,36.0687],[139.1515,36.0884],[139.1527,36.0269],[139.1762,35.9977]]]},"properties":{"area":3706,"forest":2777,"ratio":75,"m":"東秩父村"}},
{"type":"Feature","geometry":{"type":"Polygon","coordinates":[[[139.1367,36.1457],[139.1606,36.135],[139.1929,36.1444],[139.1902,36.1767],[139.1941,36.2082],[139.163,36.2052],[139.1367,36.1457]]]},"properties":{"area":3341,"forest":707,"ratio":21,"m":"美里町"}},
{"type":"Feature","geometry":{"type":"Polygon","coordinates":[[[139.0078,36.0975],[139.0568,36.1262],[139.0754,36.1769],[139.1359,36.2213],[139.0965,36.2382],[139.0564,36.1805],[139.0606,36.1523],[138.9765,36.1172],[139.0078,36.0975]]]},"properties":{"area":4740,"forest":2082,"ratio":44,"m":"神川町"}},
{"type":"Feature","geometry":{"type":"Polygon","coordinates":[[[139.1695,36.2748],[139.127,36.2785],[139.0965,36.2382],[139.1359,36.2213],[139.1695,36.2748]]]},"properties":{"area":2918,"forest":6,"ratio":0,"m":"上里町"}},
{"type":"Feature","geometry":{"type":"Polygon","coordinates":[[[139.1902,36.1767],[139.1929,36.1444],[139.1606,36.135],[139.1393,36.0908],[139.1515,36.0884],[139.1977,36.0687],[139.2099,36.0875],[139.252,36.0835],[139.2882,36.099],[139.2882,36.1067],[139.2168,36.1191],[139.2205,36.159],[139.1902,36.1767]]]},"properties":{"area":6425,"forest":2295,"ratio":36,"m":"寄居町"}},
{"type":"Feature","geometry":{"type":"Polygon","coordinates":[[[139.7438,36.0005],[139.6993,36.0556],[139.6837,36.0421],[139.7138,36.0048],[139.7438,36.0005]]]},"properties":{"area":1595,"forest":17,"ratio":1,"m":"宮代町"}},
{"type":"Feature","geometry":{"type":"Polygon","coordinates":[[[139.8069,36.0432],[139.7895,36.0618],[139.7398,36.0405],[139.7029,36.0624],[139.6993,36.0556],[139.7438,36.0005],[139.8069,36.0432]]]},"properties":{"area":3003,"forest":4,"ratio":0,"m":"杉戸町"}},
{"type":"Feature","geometry":{"type":"Polygon","coordinates":[[[139.8024,35.9414],[139.8373,35.9061],[139.8493,35.9383],[139.8333,35.969],[139.8024,35.9414]]]},"properties":{"area":1620,"forest":2,"ratio":0,"m":"松伏町"}}
]}